NORAD_CAT_ID,OBJECT_NAME,OBJECT_TYPE,EPOCH,MEAN_MOTION,ECCENTRICITY,INCLINATION,RA_OF_ASC_NODE,ARG_OF_PERICENTER,MEAN_ANOMALY,BSTAR,MEAN_MOTION_DOT,MEAN_MOTION_DDOT,TLE_LINE0,TLE_LINE1,TLE_LINE2,SEMIMAJOR_AXIS,PERIOD,APOGEE,PERIGEE,DECAYED
55643.0,STARLINK-5483,PAYLOAD,2023-03-03 22:00:00,15.75024471,0.0003482,70.0001,110.1961,269.2193,329.7219,-0.0073008,-0.00972887,0.0,0 STARLINK-5483,1 55643U 23021R   23062.91667824 -.00972887  00000-0 -73008-2 0  9990,2 55643  70.0001 110.1961 0003482 269.2193 329.7219 15.75024471  1304,6722.699,91.427,346.904,342.223,0.0
55643.0,STARLINK-5483,PAYLOAD,2023-03-04 10:00:01,15.7396112,0.0003421,70.0002,108.7807,273.563,278.658,-0.0075986,-0.00967348,0.0,0 STARLINK-5483,1 55643U 23021R   23063.41668981 -.00967348  00000-0 -75986-2 0  9994,2 55643  70.0002 108.7807 0003421 273.5630 278.6580 15.73961120  2846,6725.726,91.489,349.892,345.29,0.0
55643.0,STARLINK-5483,PAYLOAD,2023-03-04 14:00:01,15.73583647,0.0003543,69.9948,108.3013,276.9241,139.2174,-0.0073719,-0.00927821,0.0,0 STARLINK-5483,1 55643U 23021R   23063.58334491 -.00927821  00000-0 -73719-2 0  9992,2 55643  69.9948 108.3013 0003543 276.9241 139.2174 15.73583647  1302,6726.802,91.511,351.05,346.283,0.0
55643.0,STARLINK-5483,PAYLOAD,2023-03-04 22:00:00,15.72867084,0.0003297,69.9946,107.3596,269.1569,234.3115,-0.007441,-0.00909935,0.0,0 STARLINK-5483,1 55643U 23021R   23063.91667824 -.00909935  00000-0 -74410-2 0  9993,2 55643  69.9946 107.3596 0003297 269.1569 234.3115 15.72867084  1309,6728.844,91.553,352.928,348.491,0.0
55643.0,STARLINK-5483,PAYLOAD,2023-03-05 08:00:01,15.7201877,0.0003616,69.9944,106.1837,271.7767,69.7179,-0.0083745,-0.00995474,0.0,0 STARLINK-5483,1 55643U 23021R   23064.33335648 -.00995474  00000-0 -83745-2 0  9990,2 55643  69.9944 106.1837 0003616 271.7767  69.7179 15.72018770  2981,6731.265,91.602,355.564,350.696,0.0
55643.0,STARLINK-5483,PAYLOAD,2023-03-05 14:00:01,15.71487682,0.0003641,69.9939,105.479,275.1985,40.3679,-0.0083906,-0.00977024,0.0,0 STARLINK-5483,1 55643U 23021R   23064.58334491 -.00977024  00000-0 -83906-2 0  9992,2 55643  69.9939 105.4790 0003641 275.1985  40.3679 15.71487682  1309,6732.782,91.633,357.098,352.195,0.0
55643.0,STARLINK-5483,PAYLOAD,2023-03-05 22:00:00,15.70713649,0.0003646,69.9941,104.5399,268.2002,132.1683,-0.0074216,-0.00835892,0.0,0 STARLINK-5483,1 55643U 23021R   23064.91667824 -.00835892  00000-0 -74216-2 0  9998,2 55643  69.9941 104.5399 0003646 268.2002 132.1683 15.70713649  1304,6734.993,91.678,359.314,354.403,0.0
55643.0,STARLINK-5483,PAYLOAD,2023-03-06 08:00:01,15.69916022,0.0003454,69.9951,103.3676,272.5845,322.567,-9.7634e-05,-0.00011932,0.0,0 STARLINK-5483,1 55643U 23021R   23065.33334491 -.00011932  00000-0 -97634-4 0  9998,2 55643  69.9951 103.3676 0003454 272.5845 322.5670 15.69916022  3143,6737.274,91.725,361.466,356.812,0.0
55643.0,STARLINK-5483,PAYLOAD,2023-03-06 22:00:00,15.69879702,0.0003345,69.9964,101.7272,269.6506,21.3502,0.00088476,0.00107345,0.0,0 STARLINK-5483,1 55643U 23021R   23065.91667824  .00107345  00000-0  88476-3 0  9996,2 55643  69.9964 101.7272 0003345 269.6506  21.3502 15.69879702  1308,6737.378,91.727,361.497,356.99,0.0
55643.0,STARLINK-5483,PAYLOAD,2023-03-07 08:00:01,15.69903061,0.0003525,69.9979,100.5556,274.3906,210.7681,3.1175e-05,3.534e-05,0.0,0 STARLINK-5483,1 55643U 23021R   23066.33334491  .00003534  00000-0  31175-4 0  9994,2 55643  69.9979 100.5556 0003525 274.3906 210.7681 15.69903061  3303,6737.311,91.725,361.551,356.801,0.0
55643.0,STARLINK-5483,PAYLOAD,2023-03-07 22:00:00,15.69896724,0.0003464,69.9998,98.9148,270.0011,271.0052,0.00037439,0.00044996,0.0,0 STARLINK-5483,1 55643U 23021R   23066.91667824  .00044996  00000-0  37439-3 0  9992,2 55643  69.9998  98.9148 0003464 270.0011 271.0052 15.69896724  3391,6737.329,91.726,361.528,356.861,0.0
55643.0,STARLINK-5483,PAYLOAD,2023-03-08 06:00:00,15.69904018,0.0003438,70.0007,97.9776,273.4075,350.9104,0.0001029,0.00012168,0.0,0 STARLINK-5483,1 55643U 23021R   23067.25001157  .00012168  00000-0  10290-3 0  9993,2 55643  70.0007  97.9776 0003438 273.4075 350.9104 15.69904018  3446,6737.309,91.725,361.49,356.857,0.0
55643.0,STARLINK-5483,PAYLOAD,2023-03-08 22:00:00,15.698545,0.0003362,70.0006,96.1033,264.5871,166.4381,0.000953,0.00115635,0.0,0 STARLINK-5483,1 55643U 23021R   23067.91667824  .00115635  00000-0  95300-3 0  9993,2 55643  70.0006  96.1033 0003362 264.5871 166.4381 15.69854500  1303,6737.45,91.728,361.58,357.05,0.0
55643.0,STARLINK-5483,PAYLOAD,2023-03-09 08:00:01,15.69884085,0.0003325,70.0006,94.932,271.5158,353.6571,0.00030087,0.0003606,0.0,0 STARLINK-5483,1 55643U 23021R   23068.33334491  .00036060  00000-0  30087-3 0  9996,2 55643  70.0006  94.9320 0003325 271.5158 353.6571 15.69884085  3611,6737.366,91.727,361.471,356.99,0.0
55643.0,STARLINK-5483,PAYLOAD,2023-03-09 19:06:28,15.6996231,0.0003352,70.0003,93.6304,268.8777,91.2035,0.00040549,0.00048906,0.0,0 STARLINK-5483,1 55643U 23021R   23068.79616018  .00048906  00000-0  40549-3 0  9990,2 55643  70.0003  93.6304 0003352 268.8777  91.2035 15.69962310  3687,6737.142,91.722,361.265,356.749,0.0
55643.0,STARLINK-5483,PAYLOAD,2023-03-10 04:16:59,15.69932319,0.0003533,70.0001,92.5557,266.1736,93.9055,0.00047596,0.00057431,0.0,0 STARLINK-5483,1 55643U 23021R   23069.17846302  .00057431  00000-0  47596-3 0  9996,2 55643  70.0001  92.5557 0003533 266.1736  93.9055 15.69932319  3744,6737.228,91.724,361.473,356.712,0.0
55643.0,STARLINK-5483,PAYLOAD,2023-03-10 10:23:59,15.69941587,0.0003463,70.0004,91.8394,266.6132,93.4667,0.00025441,0.00030512,0.0,0 STARLINK-5483,1 55643U 23021R   23069.43332943  .00030512  00000-0  25441-3 0  9992,2 55643  70.0004  91.8394 0003463 266.6132  93.4667 15.69941587  3780,6737.201,91.723,361.399,356.733,0.0
55643.0,STARLINK-5483,PAYLOAD,2023-03-10 18:02:45,15.69922046,0.0003234,70.0005,90.943,265.1397,94.943,0.00012667,0.00015044,0.0,0 STARLINK-5483,1 55643U 23021R   23069.75191693  .00015044  00000-0  12667-3 0  9991,2 55643  70.0005  90.9430 0003234 265.1397  94.9430 15.69922046  3834,6737.257,91.724,361.301,356.943,0.0
55643.0,STARLINK-5483,PAYLOAD,2023-03-11 04:45:01,15.69924948,0.0003279,70.0005,89.6895,266.7708,93.3112,6.2802e-05,7.345e-05,0.0,0 STARLINK-5483,1 55643U 23021R   23070.19793448  .00007345  00000-0  62802-4 0  9999,2 55643  70.0005  89.6895 0003279 266.7708  93.3112 15.69924948  3907,6737.249,91.724,361.323,356.905,0.0
55643.0,STARLINK-5483,PAYLOAD,2023-03-11 12:23:47,15.69923947,0.0002877,70.0006,88.7937,278.6134,81.4735,3.3269e-05,3.789e-05,0.0,0 STARLINK-5483,1 55643U 23021R   23070.51651875  .00003789  00000-0  33269-4 0  9995,2 55643  70.0006  88.7937 0002877 278.6134  81.4735 15.69923947  4260,6737.252,91.724,361.055,357.178,0.0
55643.0,STARLINK-5483,PAYLOAD,2023-03-12 03:41:18,15.69925169,0.0003289,70.0007,87.0027,262.5783,97.5039,2.7224e-05,3.062e-05,0.0,0 STARLINK-5483,1 55643U 23021R   23071.15368363  .00003062  00000-0  27224-4 0  9991,2 55643  70.0007  87.0027 0003289 262.5783  97.5039 15.69925169  4053,6737.248,91.724,361.329,356.897,0.0
55643.0,STARLINK-5483,PAYLOAD,2023-03-12 12:51:48,15.69936067,0.000314,70.0013,85.9281,258.2733,101.811,4.5603e-05,5.277e-05,0.0,0 STARLINK-5483,1 55643U 23021R   23071.53597976  .00005277  00000-0  45603-4 0  9998,2 55643  70.0013  85.9281 0003140 258.2733 101.8110 15.69936067  4117,6737.217,91.723,361.197,356.966,0.0
55643.0,STARLINK-5483,PAYLOAD,2023-03-13 10:16:20,15.69923049,0.0003993,70.0024,83.4214,246.4469,113.6308,6.5111e-06,5.7e-06,0.0,0 STARLINK-5483,1 55643U 23021R   23072.42801513  .00000570  00000-0  65111-5 0  9990,2 55643  70.0024  83.4214 0003993 246.4469 113.6308 15.69923049  4250,6737.254,91.724,361.809,356.429,0.0
55643.0,STARLINK-5483,PAYLOAD,2023-03-13 13:19:51,15.69925985,0.0001619,70.0007,83.0601,294.3632,65.7395,3.3613e-05,3.831e-05,0.0,0 STARLINK-5483,1 55643U 23021R   23072.55546108  .00003831  00000-0  33613-4 0  9994,2 55643  70.0007  83.0601 0001619 294.3632  65.7395 15.69925985  4584,6737.246,91.724,360.202,358.02,0.0
55643.0,STARLINK-5483,PAYLOAD,2023-03-14 10:44:22,15.6993711,0.0003377,70.0028,80.5568,279.8301,80.2514,7.2661e-05,8.538e-05,0.0,0 STARLINK-5483,1 55643U 23021R   23073.44748762  .00008538  00000-0  72661-4 0  9998,2 55643  70.0028  80.5568 0003377 279.8301  80.2514 15.69937110  4729,6737.214,91.723,361.354,356.804,0.0
55643.0,STARLINK-5483,PAYLOAD,2023-03-15 03:33:38,15.69933703,0.000343,70.0005,78.5851,264.5715,95.509,3.3975e-05,3.876e-05,0.0,0 STARLINK-5483,1 55643U 23021R   23074.14836686  .00003876  00000-0  33975-4 0  9994,2 55643  70.0005  78.5851 0003430 264.5715  95.5090 15.69933703  4526,6737.224,91.724,361.4,356.778,0.0
55643.0,STARLINK-5483,PAYLOAD,2023-03-15 12:44:09,15.69928342,0.0003435,70.0001,77.5099,264.6014,95.479,1.5358e-05,1.635e-05,0.0,0 STARLINK-5483,1 55643U 23021R   23074.53066780  .00001635  00000-0  15358-4 0  9993,2 55643  70.0001  77.5099 0003435 264.6014  95.4790 15.69928342  4892,6737.239,91.724,361.418,356.79,0.0
55643.0,STARLINK-5483,PAYLOAD,2023-03-16 02:29:56,15.69927064,0.0003182,69.9989,75.8953,256.334,103.7501,-6.3223e-06,-9.73e-06,0.0,0 STARLINK-5483,1 55643U 23021R   23075.10412355 -.00000973  00000-0 -63223-5 0  9991,2 55643  69.9989  75.8953 0003182 256.3340 103.7501 15.69927064  4672,6737.243,91.724,361.251,356.964,0.0
55643.0,STARLINK-5483,PAYLOAD,2023-03-16 11:40:25,15.69942216,0.0003167,69.9982,74.8213,271.0977,88.9856,1.6528e-05,1.776e-05,0.0,0 STARLINK-5483,1 55643U 23021R   23075.48641117  .00001776  00000-0  16528-4 0  9997,2 55643  69.9982  74.8213 0003167 271.0977  88.9856 15.69942216  4736,6737.199,91.723,361.198,356.931,0.0
55643.0,STARLINK-5483,PAYLOAD,2023-03-16 23:54:28,15.69914521,0.0003384,69.9985,73.388,258.9171,101.1645,2.2312e-06,5.5e-07,0.0,0 STARLINK-5483,1 55643U 23021R   23075.99616300  .00000055  00000-0  22312-5 0  9997,2 55643  69.9985  73.3880 0003384 258.9171 101.1645 15.69914521  4815,6737.279,91.725,361.423,356.864,0.0
